[{"OBJECT_NAME":"KINEIS-3A","OBJECT_ID":"2024-172D","EPOCH":"2026-03-09T19:23:40.391232","MEAN_MOTION":14.72337384,"ECCENTRICITY":0.00029157,"INCLINATION":98.0282,"RA_OF_ASC_NODE":159.903,"ARG_OF_PERICENTER":69.8112,"MEAN_ANOMALY":290.3409,"EPHEMERIS_TYPE":0,"CLASSIFICATION_TYPE":"U","NORAD_CAT_ID":61223,"ELEMENT_SET_NO":999,"REV_AT_EPOCH":7815,"BSTAR":0.00045890962,"MEAN_MOTION_DOT":2.854e-5,"MEAN_MOTION_DDOT":0},{"OBJECT_NAME":"COSMOS 220","OBJECT_ID":"1968-040A","EPOCH":"2026-03-09T21:34:53.700096","MEAN_MOTION":14.8069564,"ECCENTRICITY":0.00352383,"INCLINATION":74.0276,"RA_OF_ASC_NODE":17.03,"ARG_OF_PERICENTER":304.0843,"MEAN_ANOMALY":55.699,"EPHEMERIS_TYPE":0,"CLASSIFICATION_TYPE":"U","NORAD_CAT_ID":3229,"ELEMENT_SET_NO":999,"REV_AT_EPOCH":7569,"BSTAR":0.00019482875,"MEAN_MOTION_DOT":1.478e-5,"MEAN_MOTION_DDOT":0}]
